{
  "type": "FeatureCollection",
  "features": [
    {
      "type": "Feature",
      "properties": {
        "norad_id": 15362,
        "name": "NOVA 3",
        "group": "nnss",
        "lat": -75.06349816953406,
        "lon": -100.04170603558362,
        "alt_km": 1186.5201269465251,
        "timestamp": "2025-12-02T19:35:50.824362+00:00",
        "meta_object_name": "NOVA 3",
        "meta_object_id": "1984-110A",
        "meta_epoch": "2025-12-02T12:55:16.469184",
        "meta_mean_motion": 13.23042582,
        "meta_eccentricity": 0.0031321,
        "meta_inclination": 90.1225,
        "meta_ra_of_asc_node": 80.4145,
        "meta_arg_of_pericenter": 0.5947,
        "meta_mean_anomaly": 10.6151,
        "meta_ephemeris_type": 0,
        "meta_classification_type": "U",
        "meta_norad_cat_id": 15362,
        "meta_element_set_no": 999,
        "meta_rev_at_epoch": 98564,
        "meta_bstar": 0.00010768,
        "meta_mean_motion_dot": 5.4e-07,
        "meta_mean_motion_ddot": 0,
        "tle_line1": "1 15362U 84110A   25336.53838506  .00000054  00000+0  10768-3 0  9991",
        "tle_line2": "2 15362  90.1225  80.4145 0031321   0.5947  10.6151 13.23042582985641"
      },
      "geometry": {
        "type": "Point",
        "coordinates": [
          -100.04170603558362,
          -75.06349816953406
        ]
      }
    },
    {
      "type": "Feature",
      "properties": {
        "norad_id": 15935,
        "name": "OSCAR 30",
        "group": "nnss",
        "lat": -52.94588046503864,
        "lon": -80.53308254872597,
        "alt_km": 1195.358768073469,
        "timestamp": "2025-12-02T19:35:50.824372+00:00",
        "meta_object_name": "OSCAR 30",
        "meta_object_id": "1985-066A",
        "meta_epoch": "2025-12-02T09:47:28.125024",
        "meta_mean_motion": 13.36075608,
        "meta_eccentricity": 0.0169317,
        "meta_inclination": 90.1645,
        "meta_ra_of_asc_node": 99.6783,
        "meta_arg_of_pericenter": 112.7431,
        "meta_mean_anomaly": 314.3185,
        "meta_ephemeris_type": 0,
        "meta_classification_type": "U",
        "meta_norad_cat_id": 15935,
        "meta_element_set_no": 999,
        "meta_rev_at_epoch": 96315,
        "meta_bstar": 0.00020486,
        "meta_mean_motion_dot": 1.24e-06,
        "meta_mean_motion_ddot": 0,
        "tle_line1": "1 15935U 85066A   25336.40796441  .00000124  00000+0  20486-3 0  9991",
        "tle_line2": "2 15935  90.1645  99.6783 0169317 112.7431 314.3185 13.36075608963156"
      },
      "geometry": {
        "type": "Point",
        "coordinates": [
          -80.53308254872597,
          -52.94588046503864
        ]
      }
    },
    {
      "type": "Feature",
      "properties": {
        "norad_id": 15936,
        "name": "OSCAR 24",
        "group": "nnss",
        "lat": -48.90556311665589,
        "lon": 92.33476873314046,
        "alt_km": 1255.7386285537823,
        "timestamp": "2025-12-02T19:35:50.824383+00:00",
        "meta_object_name": "OSCAR 24",
        "meta_object_id": "1985-066B",
        "meta_epoch": "2025-12-02T09:23:34.266048",
        "meta_mean_motion": 13.35933297,
        "meta_eccentricity": 0.017034,
        "meta_inclination": 90.1786,
        "meta_ra_of_asc_node": 92.1224,
        "meta_arg_of_pericenter": 119.2294,
        "meta_mean_anomaly": 308.6946,
        "meta_ephemeris_type": 0,
        "meta_classification_type": "U",
        "meta_norad_cat_id": 15936,
        "meta_element_set_no": 999,
        "meta_rev_at_epoch": 96505,
        "meta_bstar": 0.00013378,
        "meta_mean_motion_dot": 8.5e-07,
        "meta_mean_motion_ddot": 0,
        "tle_line1": "1 15936U 85066B   25336.39136882  .00000085  00000+0  13378-3 0  9995",
        "tle_line2": "2 15936  90.1786  92.1224 0170340 119.2294 308.6946 13.35933297965056"
      },
      "geometry": {
        "type": "Point",
        "coordinates": [
          92.33476873314046,
          -48.90556311665589
        ]
      }
    },
    {
      "type": "Feature",
      "properties": {
        "norad_id": 17070,
        "name": "POLAR BEAR",
        "group": "nnss",
        "lat": -5.538592744076746,
        "lon": 4.207368379886746,
        "alt_km": 960.88087307359,
        "timestamp": "2025-12-02T19:35:50.824394+00:00",
        "meta_object_name": "POLAR BEAR",
        "meta_object_id": "1986-088A",
        "meta_epoch": "2025-12-02T12:01:19.378272",
        "meta_mean_motion": 13.7524755,
        "meta_eccentricity": 0.004021,
        "meta_inclination": 89.6181,
        "meta_ra_of_asc_node": 184.183,
        "meta_arg_of_pericenter": 149.0997,
        "meta_mean_anomaly": 274.2879,
        "meta_ephemeris_type": 0,
        "meta_classification_type": "U",
        "meta_norad_cat_id": 17070,
        "meta_element_set_no": 999,
        "meta_rev_at_epoch": 95838,
        "meta_bstar": 0.00014048,
        "meta_mean_motion_dot": 1.47e-06,
        "meta_mean_motion_ddot": 0,
        "tle_line1": "1 17070U 86088A   25336.50091873  .00000147  00000+0  14048-3 0  9998",
        "tle_line2": "2 17070  89.6181 184.1830 0040210 149.0997 274.2879 13.75247550958382"
      },
      "geometry": {
        "type": "Point",
        "coordinates": [
          4.207368379886746,
          -5.538592744076746
        ]
      }
    },
    {
      "type": "Feature",
      "properties": {
        "norad_id": 18361,
        "name": "OSCAR 27",
        "group": "nnss",
        "lat": 84.79980241948786,
        "lon": 74.78341066206751,
        "alt_km": 1158.3144722245552,
        "timestamp": "2025-12-02T19:35:50.824405+00:00",
        "meta_object_name": "OSCAR 27",
        "meta_object_id": "1987-080A",
        "meta_epoch": "2025-12-02T08:27:25.357248",
        "meta_mean_motion": 13.44903269,
        "meta_eccentricity": 0.0102304,
        "meta_inclination": 90.3742,
        "meta_ra_of_asc_node": 78.8837,
        "meta_arg_of_pericenter": 253.9632,
        "meta_mean_anomaly": 105.023,
        "meta_ephemeris_type": 0,
        "meta_classification_type": "U",
        "meta_norad_cat_id": 18361,
        "meta_element_set_no": 999,
        "meta_rev_at_epoch": 87417,
        "meta_bstar": 0.00020526,
        "meta_mean_motion_dot": 1.31e-06,
        "meta_mean_motion_ddot": 0,
        "tle_line1": "1 18361U 87080A   25336.35237682  .00000131  00000+0  20526-3 0  9999",
        "tle_line2": "2 18361  90.3742  78.8837 0102304 253.9632 105.0230 13.44903269874176"
      },
      "geometry": {
        "type": "Point",
        "coordinates": [
          74.78341066206751,
          84.79980241948786
        ]
      }
    },
    {
      "type": "Feature",
      "properties": {
        "norad_id": 18362,
        "name": "OSCAR 29",
        "group": "nnss",
        "lat": 66.70042635348588,
        "lon": -99.76807799512619,
        "alt_km": 1160.3018355885506,
        "timestamp": "2025-12-02T19:35:50.824415+00:00",
        "meta_object_name": "OSCAR 29",
        "meta_object_id": "1987-080B",
        "meta_epoch": "2025-12-02T08:38:59.850816",
        "meta_mean_motion": 13.44445358,
        "meta_eccentricity": 0.010368,
        "meta_inclination": 90.3756,
        "meta_ra_of_asc_node": 79.3421,
        "meta_arg_of_pericenter": 277.3797,
        "meta_mean_anomaly": 149.7895,
        "meta_ephemeris_type": 0,
        "meta_classification_type": "U",
        "meta_norad_cat_id": 18362,
        "meta_element_set_no": 999,
        "meta_rev_at_epoch": 87370,
        "meta_bstar": 0.00016294,
        "meta_mean_motion_dot": 1.05e-06,
        "meta_mean_motion_ddot": 0,
        "tle_line1": "1 18362U 87080B   25336.36041494  .00000105  00000+0  16294-3 0  9993",
        "tle_line2": "2 18362  90.3756  79.3421 0103680 277.3797 149.7895 13.44445358873707"
      },
      "geometry": {
        "type": "Point",
        "coordinates": [
          -99.76807799512619,
          66.70042635348588
        ]
      }
    },
    {
      "type": "Feature",
      "properties": {
        "norad_id": 19070,
        "name": "OSCAR 23",
        "group": "nnss",
        "lat": 58.739353809338695,
        "lon": -163.3834489938366,
        "alt_km": 1137.8282515640403,
        "timestamp": "2025-12-02T19:35:50.824426+00:00",
        "meta_object_name": "OSCAR 23",
        "meta_object_id": "1988-033A",
        "meta_epoch": "2025-12-02T04:51:39.200256",
        "meta_mean_motion": 13.2778468,
        "meta_eccentricity": 0.0188665,
        "meta_inclination": 90.3226,
        "meta_ra_of_asc_node": 16.0656,
        "meta_arg_of_pericenter": 209.2712,
        "meta_mean_anomaly": 220.7503,
        "meta_ephemeris_type": 0,
        "meta_classification_type": "U",
        "meta_norad_cat_id": 19070,
        "meta_element_set_no": 999,
        "meta_rev_at_epoch": 82113,
        "meta_bstar": 0.00022751,
        "meta_mean_motion_dot": 1.21e-06,
        "meta_mean_motion_ddot": 0,
        "tle_line1": "1 19070U 88033A   25336.20253704  .00000121  00000+0  22751-3 0  9994",
        "tle_line2": "2 19070  90.3226  16.0656 0188665 209.2712 220.7503 13.27784680821132"
      },
      "geometry": {
        "type": "Point",
        "coordinates": [
          -163.3834489938366,
          58.739353809338695
        ]
      }
    }
  ]
}